[{"OBJECT_NAME":"STARLINK-33643","OBJECT_ID":"2025-063U","EPOCH":"2026-03-09T23:20:24.038880","MEAN_MOTION":15.30229159,"ECCENTRICITY":0.00014337,"INCLINATION":53.1595,"RA_OF_ASC_NODE":51.0827,"ARG_OF_PERICENTER":96.2167,"MEAN_ANOMALY":263.8997,"EPHEMERIS_TYPE":0,"CLASSIFICATION_TYPE":"U","NORAD_CAT_ID":63381,"ELEMENT_SET_NO":999,"REV_AT_EPOCH":5480,"BSTAR":0.0015195335,"MEAN_MOTION_DOT":0.00044959,"MEAN_MOTION_DDOT":0},{"OBJECT_NAME":"BREEZE-M DEB [TANK]","OBJECT_ID":"2007-009B","EPOCH":"2026-03-09T04:40:40.373472","MEAN_MOTION":4.93987759,"ECCENTRICITY":0.54108445,"INCLINATION":49.3737,"RA_OF_ASC_NODE":186.5697,"ARG_OF_PERICENTER":42.4357,"MEAN_ANOMALY":348.6281,"EPHEMERIS_TYPE":0,"CLASSIFICATION_TYPE":"U","NORAD_CAT_ID":31103,"ELEMENT_SET_NO":999,"REV_AT_EPOCH":32627,"BSTAR":0.00047254551,"MEAN_MOTION_DOT":2.267e-5,"MEAN_MOTION_DDOT":0}]
